{
    "links": {
        "self": "http://www.neowsapp.com/rest/v1/neo/3183851?api_key=iIulBulltgU6a56xZRHN4H3l9WmuAYTsLGpBGhQ2"
    },
    "id": "3183851",
    "neo_reference_id": "3183851",
    "name": "(2004 LY5)",
    "designation": "2004 LY5",
    "nasa_jpl_url": "http://ssd.jpl.nasa.gov/sbdb.cgi?sstr=3183851",
    "absolute_magnitude_h": 21.5,
    "estimated_diameter": {
        "kilometers": {
            "estimated_diameter_min": 0.1332155667,
            "estimated_diameter_max": 0.2978790628
        },
        "meters": {
            "estimated_diameter_min": 133.2155666981,
            "estimated_diameter_max": 297.8790627982
        },
        "miles": {
            "estimated_diameter_min": 0.0827762899,
            "estimated_diameter_max": 0.1850934111
        },
        "feet": {
            "estimated_diameter_min": 437.0589598459,
            "estimated_diameter_max": 977.2935443908
        }
    },
    "is_potentially_hazardous_asteroid": true,
    "close_approach_data": [
        {
            "close_approach_date": "2004-06-18",
            "close_approach_date_full": "2004-Jun-18 07:54",
            "epoch_date_close_approach": 1087545240000,
            "relative_velocity": {
                "kilometers_per_second": "28.9106139161",
                "kilometers_per_hour": "104078.210097969",
                "miles_per_hour": "64670.1522689297"
            },
            "miss_distance": {
                "astronomical": "0.0651391572",
                "lunar": "25.3391321508",
                "kilometers": "9744679.170715164",
                "miles": "6055062.8596867032"
            },
            "orbiting_body": "Earth"
        }
    ],
    "orbital_data": {
        "orbit_id": "9",
        "orbit_determination_date": "2017-04-06 09:12:39",
        "first_observation_date": "2004-06-12",
        "last_observation_date": "2004-06-15",
        "data_arc_in_days": 3,
        "observations_used": 39,
        "orbit_uncertainty": "9",
        "minimum_orbit_intersection": ".013771",
        "jupiter_tisserand_invariant": "3.501",
        "epoch_osculation": "2453170.5",
        "eccentricity": ".7840355285057927",
        "semi_major_axis": "1.867657367747497",
        "inclination": "16.11589878987927",
        "ascending_node_longitude": "87.59135696889916",
        "orbital_period": "932.2754223294223",
        "perihelion_distance": ".4033476363578504",
        "perihelion_argument": "294.7567050947216",
        "aphelion_distance": "3.331967099137143",
        "perihelion_time": "2453220.536398570924",
        "mean_anomaly": "340.6783456325338",
        "mean_motion": ".3861519797448794",
        "equinox": "J2000",
        "orbit_class": {
            "orbit_class_type": "APO",
            "orbit_class_description": "Near-Earth asteroid orbits which cross the Earth’s orbit similar to that of 1862 Apollo",
            "orbit_class_range": "a (semi-major axis) > 1.0 AU; q (perihelion) < 1.017 AU"
        }
    },
    "is_sentry_object": false
}